{"type": "FeatureCollection", "features": [{"type": "Feature", "geometry": {"type": "Polygon", "coordinates": [[[657837.7615139959, 564064.4062565342], [657837.7615139959, 564105.8083393406], [657886.7836120399, 564134.6373970006], [657886.5296115326, 564088.155304037], [657837.7615139959, 564064.4062565342]]]}, "properties": {}}, {"type": "Feature", "geometry": {"type": "Polygon", "coordinates": [[[657837.7445806284, 564108.3229443692], [657838.0832479727, 564152.5190327615], [657887.0206791814, 564180.205088133], [657886.3433444919, 564136.3476670869], [657837.7445806284, 564108.3229443692]]]}, "properties": {}}, {"type": "Feature", "geometry": {"type": "Polygon", "coordinates": [[[657902.3623098629, 564059.5548468344], [657901.8543088492, 564100.5335954595], [657948.7597359922, 564124.7483105548], [657948.2517349757, 564080.7215558328], [657902.3623098629, 564059.5548468344]]]}, "properties": {}}, {"type": "Feature", "geometry": {"type": "Polygon", "coordinates": [[[657901.6849751761, 564102.3962658513], [657902.0236425214, 564146.0843532234], [657948.9290696643, 564169.9096008763], [657948.2517349757, 564126.3908471745], [657901.6849751761, 564102.3962658513]]]}, "properties": {}}, {"type": "Feature", "geometry": {"type": "Polygon", "coordinates": [[[657965.1851021778, 564062.2472522166], [657965.3544358499, 564106.7820079587], [658011.9211956486, 564135.7380658686], [658011.2438609591, 564087.8166366909], [657965.1851021778, 564062.2472522166]]]}, "properties": {}}, {"type": "Feature", "geometry": {"type": "Polygon", "coordinates": [[[657965.3544358499, 564109.3220130354], [657964.8464348326, 564155.2114381455], [658011.4131946322, 564182.1016252618], [658010.7358599454, 564137.2282021809], [657965.3544358499, 564109.3220130354]]]}, "properties": {}}, {"type": "Feature", "geometry": {"type": "Polygon", "coordinates": [[[658027.703093878, 564082.0254251081], [658027.0257591913, 564126.2215134986], [658074.2698536795, 564152.9762336761], [658074.777854694, 564107.7641432509], [658027.703093878, 564082.0254251081]]]}, "properties": {}}, {"type": "Feature", "geometry": {"type": "Polygon", "coordinates": [[[658026.3484245017, 564128.7615185808], [658026.8564255191, 564173.973609006], [658073.0845179753, 564198.6963251159], [658073.7618526621, 564154.8389040697], [658026.3484245017, 564128.7615185808]]]}, "properties": {}}, {"type": "Feature", "geometry": {"type": "Polygon", "coordinates": [[[658090.3565525198, 564074.9134108853], [658089.5098841581, 564119.1094992775], [658136.0766439596, 564143.4935480431], [658136.4153113039, 564099.4667933267], [658090.3565525198, 564074.9134108853]]]}, "properties": {}}, {"type": "Feature", "geometry": {"type": "Polygon", "coordinates": [[[658089.5098841581, 564121.6495043598], [658090.0178851755, 564164.490923373], [658135.9073102875, 564187.350969091], [658135.7379766153, 564145.5255521052], [658089.5098841581, 564121.6495043598]]]}, "properties": {}}, {"type": "Feature", "geometry": {"type": "Polygon", "coordinates": [[[658139.0116727483, 564251.8176209386], [658091.0563768372, 564226.9467378687], [658090.8023763271, 564226.9467378687], [658090.1673750579, 564271.4603268914], [658139.0116727483, 564297.8763797283], [658139.0116727483, 564251.8176209386]]]}, "properties": {}}, {"type": "Feature", "geometry": {"type": "Polygon", "coordinates": [[[658138.9354725946, 564299.2479824703], [658090.421375568, 564273.3399306517], [658089.4053735342, 564317.155018283], [658138.80847234, 564344.8410736546], [658138.9354725946, 564299.2479824703]]]}, "properties": {}}, {"type": "Feature", "geometry": {"type": "Polygon", "coordinates": [[[658075.689346103, 564325.0290340297], [658077.3403494041, 564279.4359428436], [658030.2232551705, 564254.9248938244], [658029.0802528849, 564300.6449852642], [658075.689346103, 564325.0290340297]]]}, "properties": {}}, {"type": "Feature", "geometry": {"type": "Polygon", "coordinates": [[[658077.4673496587, 564277.4801389333], [658076.3243473722, 564235.1890543532], [658030.4772556778, 564211.6940073613], [658030.3502554251, 564253.2230904214], [658030.4772556778, 564253.0960901659], [658077.4673496587, 564277.4801389333]]]}, "properties": {}}, {"type": "Feature", "geometry": {"type": "Polygon", "coordinates": [[[658012.510953079, 564334.1624689624], [658013.1882877685, 564291.3210499492], [657967.2988626556, 564264.904997116], [657966.7908616392, 564316.2130997349], [658012.510953079, 564334.1624689624]]]}, "properties": {}}, {"type": "Feature", "geometry": {"type": "Polygon", "coordinates": [[[658013.1882877685, 564288.3577106874], [658013.1882877685, 564243.9922886267], [657968.4841983598, 564218.7615714967], [657967.2988626556, 564262.2803252004], [658013.1882877685, 564288.3577106874]]]}, "properties": {}}, {"type": "Feature", "geometry": {"type": "Polygon", "coordinates": [[[657965.6379190382, 564311.9415270534], [657965.1299180217, 564266.0521019377], [657920.9338296304, 564240.8213848133], [657921.1031633025, 564287.5574782878], [657965.6379190382, 564311.9415270534]]]}, "properties": {}}, {"type": "Feature", "geometry": {"type": "Polygon", "coordinates": [[[657918.9018255661, 564317.5295382295], [657918.3938245496, 564271.6401131138], [657874.1977361583, 564246.4093959894], [657874.3670698304, 564293.1454894639], [657918.9018255661, 564317.5295382295]]]}, "properties": {}}, {"type": "Feature", "geometry": {"type": "Polygon", "coordinates": [[[658187.5374114644, 564344.8326069713], [658234.5275054453, 564371.756660819], [658234.4005051935, 564327.0525714122], [658187.283410958, 564296.9535112139], [658187.5374114644, 564344.8326069713]]]}, "properties": {}}, {"type": "Feature", "geometry": {"type": "Polygon", "coordinates": [[[658027.5201434018, 564349.5334741846], [658028.6631456874, 564398.936572995], [658056.3492010599, 564412.2207995597], [658074.8912381446, 564424.1588234417], [658075.6532396683, 564370.6917165052], [658027.5201434018, 564349.5334741846]]]}, "properties": {}}, {"type": "Feature", "geometry": {"type": "Polygon", "coordinates": [[[658028.4091451811, 564400.2827756852], [658029.0441464502, 564443.3358617928], [658074.8912381446, 564467.7834106889], [658074.5102373827, 564425.6193263587], [658028.4091451811, 564400.2827756852]]]}, "properties": {}}, {"type": "Feature", "geometry": {"type": "Polygon", "coordinates": [[[658029.2981469594, 564445.4059659336], [658029.806147974, 564489.6020543259], [658075.9072401784, 564513.2241015676], [658074.8912381446, 564469.6630144436], [658029.2981469594, 564445.4059659336]]]}, "properties": {}}, {"type": "Feature", "geometry": {"type": "Polygon", "coordinates": [[[658029.94161491, 564490.7789233439], [658029.6029475685, 564534.8056780659], [658074.0530364672, 564558.0890579689], [658075.3230390083, 564514.4856374264], [658029.94161491, 564490.7789233439]]]}, "properties": {}}, {"type": "Feature", "geometry": {"type": "Polygon", "coordinates": [[[658092.6162402602, 564362.8737925366], [658091.7272384837, 564410.1178870238], [658139.0983332265, 564432.0889309682], [658139.7333344957, 564381.5428298749], [658092.6162402602, 564362.8737925366]]]}, "properties": {}}, {"type": "Feature", "geometry": {"type": "Polygon", "coordinates": [[[658139.2253334783, 564433.7272342406], [658092.2352395002, 564412.0101908054], [658091.8542387355, 564461.387889564], [658137.7013304299, 564486.241839271], [658139.2253334783, 564433.7272342406]]]}, "properties": {}}, {"type": "Feature", "geometry": {"type": "Polygon", "coordinates": [[[658092.4892400075, 564463.3309934512], [658092.6162402602, 564507.6540820971], [658138.5903322091, 564532.800132392], [658137.0663291607, 564487.4610417113], [658092.4892400075, 564463.3309934512]]]}, "properties": {}}, {"type": "Feature", "geometry": {"type": "Polygon", "coordinates": [[[658092.2352395002, 564509.6479860861], [658092.1082392456, 564551.5580699053], [658137.5743301781, 564577.8471224848], [658137.9553309372, 564534.9210366309], [658092.2352395002, 564509.6479860861]]]}, "properties": {}}, {"type": "Feature", "geometry": {"type": "Polygon", "coordinates": [[[658184.9919916783, 564561.7180902287], [658231.4740846446, 564586.1021389943], [658230.5850828653, 564540.50904781], [658184.737991171, 564516.2519992944], [658184.9919916783, 564561.7180902287]]]}, "properties": {}}, {"type": "Feature", "geometry": {"type": "Polygon", "coordinates": [[[658185.1189919328, 564514.0294948462], [658231.728085151, 564539.0485448856], [658232.7440871829, 564499.9324666541], [658185.2459921874, 564468.5634039156], [658185.1189919328, 564514.0294948462]]]}, "properties": {}}, {"type": "Feature", "geometry": {"type": "Polygon", "coordinates": [[[658185.6269929493, 564467.2299012486], [658233.379088454, 564498.3449634798], [658231.4740846446, 564453.5138738193], [658186.0079937112, 564423.2878133599], [658185.6269929493, 564467.2299012486]]]}, "properties": {}}, {"type": "Feature", "geometry": {"type": "Polygon", "coordinates": [[[658185.9868270019, 564421.6452767458], [658231.3894178066, 564451.8078370709], [658233.0827545272, 564408.4160836227], [658186.5159947285, 564380.158527106], [658185.9868270019, 564421.6452767458]]]}, "properties": {}}, {"type": "Feature", "geometry": {"type": "Polygon", "coordinates": [[[658249.2964536203, 564409.5717859324], [658248.3439517161, 564453.2810400203], [658293.4290418848, 564477.6227553692], [658295.0165450601, 564424.811816413], [658294.9107115148, 564424.811816413], [658249.2964536203, 564409.5717859324]]]}, "properties": {}}, {"type": "Feature", "geometry": {"type": "Polygon", "coordinates": [[[658248.3651184235, 564456.0708122645], [658247.5184500646, 564498.4042302631], [658293.6618756838, 564520.4070242718], [658292.4977066908, 564479.2377752662], [658248.3651184235, 564456.0708122645]]]}, "properties": {}}, {"type": "Feature", "geometry": {"type": "Polygon", "coordinates": [[[658306.665290582, 564432.6018708795], [658351.0307126455, 564454.1072472241], [658351.0307126455, 564415.8378373552], [658308.1892936295, 564397.8884681221], [658306.665290582, 564432.6018708795]]]}, "properties": {}}, {"type": "Feature", "geometry": {"type": "Polygon", "coordinates": [[[658305.9879558925, 564435.3112096321], [658305.1412875308, 564471.2099480983], [658348.9987085806, 564494.4086611606], [658350.1840442847, 564455.9699176159], [658305.9879558925, 564435.3112096321]]]}, "properties": {}}, {"type": "Feature", "geometry": {"type": "Polygon", "coordinates": [[[658280.8825981547, 564353.4051241163], [658327.8726921356, 564380.3291779641], [658327.7456918838, 564335.6250885573], [658280.6285976483, 564305.526028359], [658280.8825981547, 564353.4051241163]]]}, "properties": {}}]}